{"type": "FeatureCollection", "features": [ {"type": "Feature", "properties": {"norad_id": 31752, "name": "FENGYUN 1C DEB", "group": "fengyun-1c-debris", "lat": 70.50368179852723, "lon": 33.40368296927257, "alt_km": 947.3661683149285, "timestamp": "2025-12-13T03:42:11.557010+00:00", "meta": {"OBJECT_NAME": "FENGYUN 1C DEB", "OBJECT_ID": "1999-025CFB", "EPOCH": "2025-12-11T11:43:13.870272", "MEAN_MOTION": 13.93031524, "ECCENTRICITY": 0.03558955, "INCLINATION": 98.9781, "RA_OF_ASC_NODE": 58.305, "ARG_OF_PERICENTER": 337.1774, "MEAN_ANOMALY": 21.3897, "EPHEMERIS_TYPE": 0, "CLASSIFICATION_TYPE": "U", "NORAD_CAT_ID": 31752, "ELEMENT_SET_NO": 999, "REV_AT_EPOCH": 93573, "BSTAR": 0.002163174, "MEAN_MOTION_DOT": 4.698e-05, "MEAN_MOTION_DDOT": 0}, "tle": {"line1": "1 31752U 99025CFB 25345.48835498  .00004698  00000+0  21632-2 0  9993", "line2": "2 31752  98.9781  58.3050 0355895 337.1774  21.3897 13.93031524935738"}}, "geometry": {"type": "Point", "coordinates": [33.40368296927257, 70.50368179852723]}}, {"type": "Feature", "properties": {"norad_id": 31753, "name": "FENGYUN 1C DEB", "group": "fengyun-1c-debris", "lat": 11.381694965183478, "lon": 18.509491448184164, "alt_km": 939.4049231294175, "timestamp": "2025-12-13T03:42:11.557020+00:00", "meta": {"OBJECT_NAME": "FENGYUN 1C DEB", "OBJECT_ID": "1999-025CFC", "EPOCH": "2025-12-10T01:18:33.226272", "MEAN_MOTION": 14.18631258, "ECCENTRICITY": 0.01589595, "INCLINATION": 98.6327, "RA_OF_ASC_NODE": 17.2437, "ARG_OF_PERICENTER": 181.5018, "MEAN_ANOMALY": 208.9772, "EPHEMERIS_TYPE": 0, "CLASSIFICATION_TYPE": "U", "NORAD_CAT_ID": 31753, "ELEMENT_SET_NO": 999, "REV_AT_EPOCH": 95981, "BSTAR": 0.00046159825, "MEAN_MOTION_DOT": 1.042e-05, "MEAN_MOTION_DDOT": 0}, "tle": {"line1": "1 31753U 99025CFC 25344.05455123  .00001042  00000+0  46160-3 0  9993", "line2": "2 31753  98.6327  17.2437 0158959 181.5018 208.9772 14.18631258959817"}}, "geometry": {"type": "Point", "coordinates": [18.509491448184164, 11.381694965183478]}}, {"type": "Feature", "properties": {"norad_id": 31754, "name": "FENGYUN 1C DEB", "group": "fengyun-1c-debris", "lat": 39.6122740446393, "lon": 140.0430918210271, "alt_km": 739.8451224105274, "timestamp": "2025-12-13T03:42:11.557030+00:00", "meta": {"OBJECT_NAME": "FENGYUN 1C DEB", "OBJECT_ID": "1999-025CFD", "EPOCH": "2025-12-11T21:04:59.857248", "MEAN_MOTION": 14.42250723, "ECCENTRICITY": 0.0049165, "INCLINATION": 99.0404, "RA_OF_ASC_NODE": 311.1204, "ARG_OF_PERICENTER": 220.4005, "MEAN_ANOMALY": 139.3527, "EPHEMERIS_TYPE": 0, "CLASSIFICATION_TYPE": "U", "NORAD_CAT_ID": 31754, "ELEMENT_SET_NO": 999, "REV_AT_EPOCH": 96977, "BSTAR": 0.0016224, "MEAN_MOTION_DOT": 5.382e-05, "MEAN_MOTION_DDOT": 0}, "tle": {"line1": "1 31754U 99025CFD 25345.87847057  .00005382  00000+0  16224-2 0  9994", "line2": "2 31754  99.0404 311.1204 0049165 220.4005 139.3527 14.42250723969776"}}, "geometry": {"type": "Point", "coordinates": [140.0430918210271, 39.6122740446393]}}, {"type": "Feature", "properties": {"norad_id": 31757, "name": "FENGYUN 1C DEB", "group": "fengyun-1c-debris", "lat": 78.36995263851279, "lon": -122.20731605281489, "alt_km": 706.228901709399, "timestamp": "2025-12-13T03:42:11.557040+00:00", "meta": {"OBJECT_NAME": "FENGYUN 1C DEB", "OBJECT_ID": "1999-025CFG", "EPOCH": "2025-12-10T07:01:55.738272", "MEAN_MOTION": 14.07915605, "ECCENTRICITY": 0.0217958, "INCLINATION": 98.7682, "RA_OF_ASC_NODE": 6.432, "ARG_OF_PERICENTER": 90.9407, "MEAN_ANOMALY": 271.6741, "EPHEMERIS_TYPE": 0, "CLASSIFICATION_TYPE": "U", "NORAD_CAT_ID": 31757, "ELEMENT_SET_NO": 999, "REV_AT_EPOCH": 63847, "BSTAR": 0.00035867, "MEAN_MOTION_DOT": 7.16e-06, "MEAN_MOTION_DDOT": 0}, "tle": {"line1": "1 31757U 99025CFG 25344.29300623  .00000716  00000+0  35867-3 0  9996", "line2": "2 31757  98.7682   6.4320 0217958  90.9407 271.6741 14.07915605638475"}}, "geometry": {"type": "Point", "coordinates": [-122.20731605281489, 78.36995263851279]}}, {"type": "Feature", "properties": {"norad_id": 31758, "name": "FENGYUN 1C DEB", "group": "fengyun-1c-debris", "lat": 23.725372671247573, "lon": -7.363347689881634, "alt_km": 649.1800460204095, "timestamp": "2025-12-13T03:42:11.557050+00:00", "meta": {"OBJECT_NAME": "FENGYUN 1C DEB", "OBJECT_ID": "1999-025CFH", "EPOCH": "2025-12-12T07:36:37.657728", "MEAN_MOTION": 14.42007356, "ECCENTRICITY": 0.03180934, "INCLINATION": 98.0616, "RA_OF_ASC_NODE": 355.4155, "ARG_OF_PERICENTER": 91.5303, "MEAN_ANOMALY": 272.2344, "EPHEMERIS_TYPE": 0, "CLASSIFICATION_TYPE": "U", "NORAD_CAT_ID": 31758, "ELEMENT_SET_NO": 999, "REV_AT_EPOCH": 94194, "BSTAR": 0.0033289111, "MEAN_MOTION_DOT": 0.00020138, "MEAN_MOTION_DDOT": 0}, "tle": {"line1": "1 31758U 99025CFH 25346.31710252  .00020138  00000+0  33289-2 0  9990", "line2": "2 31758  98.0616 355.4155 0318093  91.5303 272.2344 14.42007356941942"}}, "geometry": {"type": "Point", "coordinates": [-7.363347689881634, 23.725372671247573]}}, {"type": "Feature", "properties": {"norad_id": 31760, "name": "FENGYUN 1C DEB", "group": "fengyun-1c-debris", "lat": 8.34941725628018, "lon": 83.47883364398093, "alt_km": 830.4094468218054, "timestamp": "2025-12-13T03:42:11.557062+00:00", "meta": {"OBJECT_NAME": "FENGYUN 1C DEB", "OBJECT_ID": "1999-025CFK", "EPOCH": "2025-12-12T05:50:07.991520", "MEAN_MOTION": 14.30175107, "ECCENTRICITY": 0.00527934, "INCLINATION": 99.2534, "RA_OF_ASC_NODE": 83.8817, "ARG_OF_PERICENTER": 198.7364, "MEAN_ANOMALY": 161.1874, "EPHEMERIS_TYPE": 0, "CLASSIFICATION_TYPE": "U", "NORAD_CAT_ID": 31760, "ELEMENT_SET_NO": 999, "REV_AT_EPOCH": 96125, "BSTAR": 0.0012179287, "MEAN_MOTION_DOT": 3.153e-05, "MEAN_MOTION_DDOT": 0}, "tle": {"line1": "1 31760U 99025CFK 25346.24314805  .00003153  00000+0  12179-2 0  9992", "line2": "2 31760  99.2534  83.8817 0052793 198.7364 161.1874 14.30175107961250"}}, "geometry": {"type": "Point", "coordinates": [83.47883364398093, 8.34941725628018]}}, {"type": "Feature", "properties": {"norad_id": 31761, "name": "FENGYUN 1C DEB", "group": "fengyun-1c-debris", "lat": 6.182629673495397, "lon": 31.95587184152956, "alt_km": 859.6029602807075, "timestamp": "2025-12-13T03:42:11.557074+00:00", "meta": {"OBJECT_NAME": "FENGYUN 1C DEB", "OBJECT_ID": "1999-025CFL", "EPOCH": "2025-12-10T08:05:44.697696", "MEAN_MOTION": 14.03384413, "ECCENTRICITY": 0.04726643, "INCLINATION": 98.6334, "RA_OF_ASC_NODE": 208.3272, "ARG_OF_PERICENTER": 270.2187, "MEAN_ANOMALY": 84.4846, "EPHEMERIS_TYPE": 0, "CLASSIFICATION_TYPE": "U", "NORAD_CAT_ID": 31761, "ELEMENT_SET_NO": 999, "REV_AT_EPOCH": 58077, "BSTAR": 0.0032051311, "MEAN_MOTION_DOT": 0.00013668, "MEAN_MOTION_DDOT": 0}, "tle": {"line1": "1 31761U 99025CFL 25344.33732289  .00013668  00000+0  32051-2 0  9994", "line2": "2 31761  98.6334 208.3272 0472664 270.2187  84.4846 14.03384413580775"}}, "geometry": {"type": "Point", "coordinates": [31.95587184152956, 6.182629673495397]}}, {"type": "Feature", "properties": {"norad_id": 31763, "name": "FENGYUN 1C DEB", "group": "fengyun-1c-debris", "lat": 43.55131255434671, "lon": -76.30982983760494, "alt_km": 891.0065928068307, "timestamp": "2025-12-13T03:42:11.557085+00:00", "meta": {"OBJECT_NAME": "FENGYUN 1C DEB", "OBJECT_ID": "1999-025CFN", "EPOCH": "2025-12-11T06:53:47.548032", "MEAN_MOTION": 13.5032407, "ECCENTRICITY": 0.05470557, "INCLINATION": 98.5205, "RA_OF_ASC_NODE": 93.8888, "ARG_OF_PERICENTER": 73.3637, "MEAN_ANOMALY": 345.9946, "EPHEMERIS_TYPE": 0, "CLASSIFICATION_TYPE": "U", "NORAD_CAT_ID": 31763, "ELEMENT_SET_NO": 999, "REV_AT_EPOCH": 90986, "BSTAR": 0.0011181748, "MEAN_MOTION_DOT": 1.799e-05, "MEAN_MOTION_DDOT": 0}, "tle": {"line1": "1 31763U 99025CFN 25345.28735588  .00001799  00000+0  11182-2 0  9990", "line2": "2 31763  98.5205  93.8888 0547055  73.3637 345.9946 13.50324070909867"}}, "geometry": {"type": "Point", "coordinates": [-76.30982983760494, 43.55131255434671]}}, {"type": "Feature", "properties": {"norad_id": 31766, "name": "FENGYUN 1C DEB", "group": "fengyun-1c-debris", "lat": -17.345708530101792, "lon": 162.1895136753545, "alt_km": 882.5305232263518, "timestamp": "2025-12-13T03:42:11.557095+00:00", "meta": {"OBJECT_NAME": "FENGYUN 1C DEB", "OBJECT_ID": "1999-025CFR", "EPOCH": "2025-12-05T17:02:42.241632", "MEAN_MOTION": 14.0527359, "ECCENTRICITY": 0.00736647, "INCLINATION": 98.8158, "RA_OF_ASC_NODE": 337.7312, "ARG_OF_PERICENTER": 310.9952, "MEAN_ANOMALY": 48.486, "EPHEMERIS_TYPE": 0, "CLASSIFICATION_TYPE": "U", "NORAD_CAT_ID": 31766, "ELEMENT_SET_NO": 999, "REV_AT_EPOCH": 63987, "BSTAR": 0.00041011226, "MEAN_MOTION_DOT": 6.36e-06, "MEAN_MOTION_DDOT": 0}, "tle": {"line1": "1 31766U 99025CFR 25339.71021113  .00000636  00000+0  41011-3 0  9990", "line2": "2 31766  98.8158 337.7312 0073664 310.9952  48.4860 14.05273590639874"}}, "geometry": {"type": "Point", "coordinates": [162.1895136753545, -17.345708530101792]}}, {"type": "Feature", "properties": {"norad_id": 31767, "name": "FENGYUN 1C DEB", "group": "fengyun-1c-debris", "lat": 8.64077906924777, "lon": -161.8131005348912, "alt_km": 884.7663605953212, "timestamp": "2025-12-13T03:42:11.557105+00:00", "meta": {"OBJECT_NAME": "FENGYUN 1C DEB", "OBJECT_ID": "1999-025CFS", "EPOCH": "2025-12-12T01:23:53.295936", "MEAN_MOTION": 14.04953169, "ECCENTRICITY": 0.00419104, "INCLINATION": 98.8217, "RA_OF_ASC_NODE": 15.7691, "ARG_OF_PERICENTER": 71.8718, "MEAN_ANOMALY": 318.2595, "EPHEMERIS_TYPE": 0, "CLASSIFICATION_TYPE": "U", "NORAD_CAT_ID": 31767, "ELEMENT_SET_NO": 999, "REV_AT_EPOCH": 94816, "BSTAR": 0.00010386457, "MEAN_MOTION_DOT": 1.26e-06, "MEAN_MOTION_DDOT": 0}, "tle": {"line1": "1 31767U 99025CFS 25346.05825574  .00000126  00000+0  10386-3 0  9994", "line2": "2 31767  98.8217  15.7691 0041910  71.8718 318.2595 14.04953169948160"}}, "geometry": {"type": "Point", "coordinates": [-161.8131005348912, 8.64077906924777]}}]}